[{"OBJECT_NAME":"STARLINK-4533","OBJECT_ID":"2022-097U","EPOCH":"2026-03-09T12:05:07.330848","MEAN_MOTION":15.08826735,"ECCENTRICITY":0.00020074,"INCLINATION":53.2165,"RA_OF_ASC_NODE":114.9571,"ARG_OF_PERICENTER":97.8373,"MEAN_ANOMALY":262.2847,"EPHEMERIS_TYPE":0,"CLASSIFICATION_TYPE":"U","NORAD_CAT_ID":53406,"ELEMENT_SET_NO":999,"REV_AT_EPOCH":19862,"BSTAR":-0.00010095786,"MEAN_MOTION_DOT":-1.894e-5,"MEAN_MOTION_DDOT":0},{"OBJECT_NAME":"UPPER FREE FLYER","OBJECT_ID":"2018-099F","EPOCH":"2026-03-09T16:53:56.769792","MEAN_MOTION":15.10728091,"ECCENTRICITY":0.00115819,"INCLINATION":97.4495,"RA_OF_ASC_NODE":120.4613,"ARG_OF_PERICENTER":289.4209,"MEAN_ANOMALY":70.5769,"EPHEMERIS_TYPE":0,"CLASSIFICATION_TYPE":"U","NORAD_CAT_ID":43763,"ELEMENT_SET_NO":999,"REV_AT_EPOCH":39752,"BSTAR":0.00029221901,"MEAN_MOTION_DOT":4.788e-5,"MEAN_MOTION_DDOT":0}]
